[{"OBJECT_NAME":"EUTELSAT 9B","OBJECT_ID":"2016-005A","EPOCH":"2026-03-07T01:45:38.679840","MEAN_MOTION":1.00270642,"ECCENTRICITY":0.0004417,"INCLINATION":0.0314,"RA_OF_ASC_NODE":63.7072,"ARG_OF_PERICENTER":262.8893,"MEAN_ANOMALY":233.5819,"EPHEMERIS_TYPE":0,"CLASSIFICATION_TYPE":"U","NORAD_CAT_ID":41310,"ELEMENT_SET_NO":999,"REV_AT_EPOCH":3709,"BSTAR":0,"MEAN_MOTION_DOT":5.9e-7,"MEAN_MOTION_DDOT":0},{"OBJECT_NAME":"EUTELSAT 65 WEST A","OBJECT_ID":"2016-014A","EPOCH":"2026-03-07T02:42:38.530944","MEAN_MOTION":1.0027157,"ECCENTRICITY":0.0002185,"INCLINATION":0.0753,"RA_OF_ASC_NODE":45.0369,"ARG_OF_PERICENTER":302.5581,"MEAN_ANOMALY":152.6922,"EPHEMERIS_TYPE":0,"CLASSIFICATION_TYPE":"U","NORAD_CAT_ID":41382,"ELEMENT_SET_NO":999,"REV_AT_EPOCH":3651,"BSTAR":0,"MEAN_MOTION_DOT":-2.79e-6,"MEAN_MOTION_DDOT":0},{"OBJECT_NAME":"EUTELSAT 117 WEST B","OBJECT_ID":"2016-038B","EPOCH":"2026-03-07T03:22:38.728128","MEAN_MOTION":1.00270832,"ECCENTRICITY":4.44e-5,"INCLINATION":0.0167,"RA_OF_ASC_NODE":306.1248,"ARG_OF_PERICENTER":315.0686,"MEAN_ANOMALY":197.3291,"EPHEMERIS_TYPE":0,"CLASSIFICATION_TYPE":"U","NORAD_CAT_ID":41589,"ELEMENT_SET_NO":999,"REV_AT_EPOCH":3564,"BSTAR":0,"MEAN_MOTION_DOT":-1.4e-7,"MEAN_MOTION_DDOT":0},{"OBJECT_NAME":"EUTELSAT 172B","OBJECT_ID":"2017-029B","EPOCH":"2026-03-07T02:45:24.667776","MEAN_MOTION":1.00274177,"ECCENTRICITY":1.67e-5,"INCLINATION":0.0211,"RA_OF_ASC_NODE":150.9577,"ARG_OF_PERICENTER":303.8151,"MEAN_ANOMALY":283.3939,"EPHEMERIS_TYPE":0,"CLASSIFICATION_TYPE":"U","NORAD_CAT_ID":42741,"ELEMENT_SET_NO":999,"REV_AT_EPOCH":3271,"BSTAR":0,"MEAN_MOTION_DOT":-8.0e-8,"MEAN_MOTION_DDOT":0},{"OBJECT_NAME":"EUTELSAT 7C","OBJECT_ID":"2019-034B","EPOCH":"2026-03-07T01:45:38.679840","MEAN_MOTION":1.00273563,"ECCENTRICITY":0.0003394,"INCLINATION":0.0722,"RA_OF_ASC_NODE":181.6417,"ARG_OF_PERICENTER":152.4225,"MEAN_ANOMALY":224.094,"EPHEMERIS_TYPE":0,"CLASSIFICATION_TYPE":"U","NORAD_CAT_ID":44334,"ELEMENT_SET_NO":999,"REV_AT_EPOCH":581,"BSTAR":0,"MEAN_MOTION_DOT":4.6e-7,"MEAN_MOTION_DDOT":0},{"OBJECT_NAME":"EUTELSAT 5 WEST B","OBJECT_ID":"2019-067A","EPOCH":"2026-03-06T23:36:38.557440","MEAN_MOTION":1.00273182,"ECCENTRICITY":0.0003221,"INCLINATION":0.0903,"RA_OF_ASC_NODE":313.4142,"ARG_OF_PERICENTER":44.3118,"MEAN_ANOMALY":156.1052,"EPHEMERIS_TYPE":0,"CLASSIFICATION_TYPE":"U","NORAD_CAT_ID":44624,"ELEMENT_SET_NO":999,"REV_AT_EPOCH":2341,"BSTAR":0,"MEAN_MOTION_DOT":-4.5e-7,"MEAN_MOTION_DDOT":0},{"OBJECT_NAME":"EUTELSAT KONNECT","OBJECT_ID":"2020-005B","EPOCH":"2026-03-07T01:45:38.679840","MEAN_MOTION":1.00278106,"ECCENTRICITY":0.0001479,"INCLINATION":0.066,"RA_OF_ASC_NODE":98.4242,"ARG_OF_PERICENTER":220.551,"MEAN_ANOMALY":239.4124,"EPHEMERIS_TYPE":0,"CLASSIFICATION_TYPE":"U","NORAD_CAT_ID":45027,"ELEMENT_SET_NO":999,"REV_AT_EPOCH":2331,"BSTAR":0,"MEAN_MOTION_DOT":4.8e-7,"MEAN_MOTION_DDOT":0},{"OBJECT_NAME":"EUTELSAT QUANTUM","OBJECT_ID":"2021-069B","EPOCH":"2026-03-07T02:09:50.578272","MEAN_MOTION":1.00271434,"ECCENTRICITY":0.0002733,"INCLINATION":0.0095,"RA_OF_ASC_NODE":185.7752,"ARG_OF_PERICENTER":164.0474,"MEAN_ANOMALY":255.146,"EPHEMERIS_TYPE":0,"CLASSIFICATION_TYPE":"U","NORAD_CAT_ID":49056,"ELEMENT_SET_NO":999,"REV_AT_EPOCH":1690,"BSTAR":0,"MEAN_MOTION_DOT":0,"MEAN_MOTION_DDOT":0},{"OBJECT_NAME":"EUTELSAT KONNECT VHTS","OBJECT_ID":"2022-110A","EPOCH":"2026-03-07T01:45:38.679840","MEAN_MOTION":1.00271433,"ECCENTRICITY":0.0002781,"INCLINATION":0.0587,"RA_OF_ASC_NODE":103.153,"ARG_OF_PERICENTER":218.7767,"MEAN_ANOMALY":231.9535,"EPHEMERIS_TYPE":0,"CLASSIFICATION_TYPE":"U","NORAD_CAT_ID":53765,"ELEMENT_SET_NO":999,"REV_AT_EPOCH":581,"BSTAR":0,"MEAN_MOTION_DOT":1.4e-7,"MEAN_MOTION_DDOT":0},{"OBJECT_NAME":"EUTELSAT HOTBIRD 13F","OBJECT_ID":"2022-134A","EPOCH":"2026-03-07T00:07:38.709696","MEAN_MOTION":1.00276777,"ECCENTRICITY":0.0002212,"INCLINATION":0.0557,"RA_OF_ASC_NODE":296.179,"ARG_OF_PERICENTER":62.5207,"MEAN_ANOMALY":180.9203,"EPHEMERIS_TYPE":0,"CLASSIFICATION_TYPE":"U","NORAD_CAT_ID":54048,"ELEMENT_SET_NO":999,"REV_AT_EPOCH":1235,"BSTAR":0,"MEAN_MOTION_DOT":8.5e-7,"MEAN_MOTION_DDOT":0},{"OBJECT_NAME":"EUTELSAT HOTBIRD 13G","OBJECT_ID":"2022-146A","EPOCH":"2026-03-06T22:46:38.904096","MEAN_MOTION":1.0027129,"ECCENTRICITY":0.0001685,"INCLINATION":0.0459,"RA_OF_ASC_NODE":227.8604,"ARG_OF_PERICENTER":304.5083,"MEAN_ANOMALY":346.9469,"EPHEMERIS_TYPE":0,"CLASSIFICATION_TYPE":"U","NORAD_CAT_ID":54225,"ELEMENT_SET_NO":999,"REV_AT_EPOCH":644,"BSTAR":0,"MEAN_MOTION_DOT":8.4e-7,"MEAN_MOTION_DDOT":0},{"OBJECT_NAME":"EUTELSAT 10B","OBJECT_ID":"2022-157A","EPOCH":"2026-03-07T01:45:38.679840","MEAN_MOTION":1.00269066,"ECCENTRICITY":0.0001662,"INCLINATION":0.0583,"RA_OF_ASC_NODE":101.9507,"ARG_OF_PERICENTER":6.9673,"MEAN_ANOMALY":92.224,"EPHEMERIS_TYPE":0,"CLASSIFICATION_TYPE":"U","NORAD_CAT_ID":54259,"ELEMENT_SET_NO":999,"REV_AT_EPOCH":1200,"BSTAR":0,"MEAN_MOTION_DOT":6.5e-7,"MEAN_MOTION_DDOT":0},{"OBJECT_NAME":"EUTELSAT 36D","OBJECT_ID":"2024-059A","EPOCH":"2026-03-07T01:47:21.461280","MEAN_MOTION":1.00270103,"ECCENTRICITY":1.41e-5,"INCLINATION":0.0028,"RA_OF_ASC_NODE":165.6719,"ARG_OF_PERICENTER":224.9775,"MEAN_ANOMALY":196.8174,"EPHEMERIS_TYPE":0,"CLASSIFICATION_TYPE":"U","NORAD_CAT_ID":59346,"ELEMENT_SET_NO":999,"REV_AT_EPOCH":712,"BSTAR":0,"MEAN_MOTION_DOT":1.53e-6,"MEAN_MOTION_DDOT":0}]
