EUTELSAT 9B             
1 41310U 16005A   26066.07336435  .00000059  00000+0  00000+0 0  9994
2 41310   0.0314  63.7072 0004417 262.8893 233.5819  1.00270642 37090
EUTELSAT 65 WEST A      
1 41382U 16014A   26066.11294596 -.00000279  00000+0  00000+0 0  9994
2 41382   0.0753  45.0369 0002185 302.5581 152.6922  1.00271570 36517
EUTELSAT 117 WEST B     
1 41589U 16038B   26066.14072602 -.00000014  00000+0  00000+0 0  9991
2 41589   0.0167 306.1248 0000444 315.0686 197.3291  1.00270832 35641
EUTELSAT 172B           
1 42741U 17029B   26066.11486884 -.00000008  00000+0  00000+0 0  9994
2 42741   0.0211 150.9577 0000167 303.8151 283.3939  1.00274177 32712
EUTELSAT 7C             
1 44334U 19034B   26066.07336435  .00000046  00000+0  00000+0 0  9994
2 44334   0.0722 181.6417 0003394 152.4225 224.0940  1.00273563  5811
EUTELSAT 5 WEST B       
1 44624U 19067A   26065.98377960 -.00000045  00000+0  00000+0 0  9999
2 44624   0.0903 313.4142 0003221  44.3118 156.1052  1.00273182 23415
EUTELSAT KONNECT        
1 45027U 20005B   26066.07336435  .00000048  00000+0  00000+0 0  9996
2 45027   0.0660  98.4242 0001479 220.5510 239.4124  1.00278106 23316
EUTELSAT QUANTUM        
1 49056U 21069B   26066.09016873  .00000000  00000+0  00000+0 0  9994
2 49056   0.0095 185.7752 0002733 164.0474 255.1460  1.00271434 16907
EUTELSAT KONNECT VHTS   
1 53765U 22110A   26066.07336435  .00000014  00000+0  00000+0 0  9996
2 53765   0.0587 103.1530 0002781 218.7767 231.9535  1.00271433  5810
EUTELSAT HOTBIRD 13F    
1 54048U 22134A   26066.00530914  .00000085  00000+0  00000+0 0  9996
2 54048   0.0557 296.1790 0002212  62.5207 180.9203  1.00276777 12354
EUTELSAT HOTBIRD 13G    
1 54225U 22146A   26065.94906139  .00000084  00000+0  00000+0 0  9993
2 54225   0.0459 227.8604 0001685 304.5083 346.9469  1.00271290  6447
EUTELSAT 10B            
1 54259U 22157A   26066.07336435  .00000065  00000+0  00000+0 0  9992
2 54259   0.0583 101.9507 0001662   6.9673  92.2240  1.00269066 12004
EUTELSAT 36D            
1 59346U 24059A   26066.07455395  .00000153  00000+0  00000+0 0  9992
2 59346   0.0028 165.6719 0000141 224.9775 196.8174  1.00270103  7126
